<?xml version="1.0" encoding="UTF-8"?>
<oem id="CCSDS_OEM_VERS" version="2.0">
    <header>
        <COMMENT>OPM WITH STATE VECTOR ONLY</COMMENT>
        <CREATION_DATE>2024-09-11T07:51:38.656012961</CREATION_DATE>
        <ORIGINATOR>OREFLIDS</ORIGINATOR>
    </header>

    <body>
        <segment>

            <metadata>
                <OBJECT_NAME>RSO TEST</OBJECT_NAME>
                <OBJECT_ID>2020-000A</OBJECT_ID>
                <CENTER_NAME>EARTH</CENTER_NAME>
                <REF_FRAME>GCRF</REF_FRAME>
                <TIME_SYSTEM>TAI</TIME_SYSTEM>
                <START_TIME>2020-12-01T00:00:37.0</START_TIME>
                <STOP_TIME>2020-12-01T12:00:37.0</STOP_TIME>
                <INTERPOLATION_DEGREE>3</INTERPOLATION_DEGREE>
            </metadata>

            <data>
                <stateVector>
                    <EPOCH>2020-12-01T11:48:37.0</EPOCH>
                    <X units="km">-6856.26650600201</X>
                    <Y units="km">-183.52977112904173</Y>
                    <Z units="km">0.08105031670254112</Z>
                    <X_DOT units="km/s">0.20388377146868045</X_DOT>
                    <Y_DOT units="km/s">-7.631251956037496</Y_DOT>
                    <Z_DOT units="km/s">0.0013702056067105277</Z_DOT>
                    <X_DDOT units="km/s**2">0.008482205388004146</X_DDOT>
                    <Y_DDOT units="km/s**2">2.2717760212883964E-4</Y_DDOT>
                    <Z_DDOT units="km/s**2">-1.5215914602372124E-7</Z_DDOT>
                </stateVector>
                <stateVector>
                    <EPOCH>2020-12-01T11:49:37.0</EPOCH>
                    <X units="km">-6828.780409218935</X>
                    <Y units="km">-640.6563082424559</Y>
                    <Z units="km">0.16292829146995988</Z>
                    <X_DOT units="km/s">0.7119782205772174</X_DOT>
                    <Y_DOT units="km/s">-7.600644339959663</Y_DOT>
                    <Z_DOT units="km/s">0.0013582429035224662</Z_DOT>
                    <X_DDOT units="km/s**2">0.008447966068118352</X_DDOT>
                    <Y_DDOT units="km/s**2">7.926887882476145E-4</Y_DDOT>
                    <Z_DDOT units="km/s**2">-2.474730076878333E-7</Z_DDOT>
                </stateVector>
                <stateVector>
                    <EPOCH>2020-12-01T11:50:37.0</EPOCH>
                    <X units="km">-6770.892978435183</X>
                    <Y units="km">-1094.9302127164267</Y>
                    <Z units="km">0.24388893953336077</Z>
                    <X_DOT units="km/s">1.216884477631327</X_DOT>
                    <Y_DOT units="km/s">-7.536201275673917</Y_DOT>
                    <Z_DOT units="km/s">0.0013403765773043373</Z_DOT>
                    <X_DDOT units="km/s**2">0.008375971886468641</X_DDOT>
                    <Y_DDOT units="km/s**2">0.0013546010386422647</Y_DDOT>
                    <Z_DDOT units="km/s**2">-3.4792061069787023E-7</Z_DDOT>
                </stateVector>
                <stateVector>
                    <EPOCH>2020-12-01T11:51:37.0</EPOCH>
                    <X units="km">-6682.8631651458445</X>
                    <Y units="km">-1544.3294840750557</Y>
                    <Z units="km">0.3236425886274018</Z>
                    <X_DOT units="km/s">1.7163466151715718</X_DOT>
                    <Y_DOT units="km/s">-7.438215026364207</Y_DOT>
                    <Z_DOT units="km/s">0.0013167420021104033</Z_DOT>
                    <X_DDOT units="km/s**2">0.008266571949977552</X_DDOT>
                    <Y_DDOT units="km/s**2">0.0019103765312859084</Y_DDOT>
                    <Z_DDOT units="km/s**2">-4.382962604043229E-7</Z_DDOT>
                </stateVector>
                <stateVector>
                    <EPOCH>2020-12-01T11:52:37.0</EPOCH>
                    <X units="km">-6565.084823781644</X>
                    <Y units="km">-1986.853946904254</Y>
                    <Z units="km">0.40180575281284375</Z>
                    <X_DOT units="km/s">2.2081350938266624</X_DOT>
                    <Y_DOT units="km/s">-7.3071282524743895</Y_DOT>
                    <Z_DOT units="km/s">0.0012878015965206097</Z_DOT>
                    <X_DDOT units="km/s**2">0.0081202758197067</X_DDOT>
                    <Y_DDOT units="km/s**2">0.002457543162313834</Y_DDOT>
                    <Z_DDOT units="km/s**2">-5.25076167677748E-7</Z_DDOT>
                </stateVector>
                <stateVector>
                    <EPOCH>2020-12-01T11:53:37.0</EPOCH>
                    <X units="km">-6418.084391824273</X>
                    <Y units="km">-2420.5345713663305</Y>
                    <Z units="km">0.47808617254029007</Z>
                    <X_DOT units="km/s">2.6900545642290066</X_DOT>
                    <Y_DOT units="km/s">-7.143531167683586</Y_DOT>
                    <Z_DOT units="km/s">0.001253904734858508</Z_DOT>
                    <X_DDOT units="km/s**2">0.007937729832897977</X_DDOT>
                    <Y_DDOT units="km/s**2">0.0029936449946238335</Y_DDOT>
                    <Z_DDOT units="km/s**2">-6.037818622233522E-7</Z_DDOT>
                </stateVector>
                <stateVector>
                    <EPOCH>2020-12-01T11:54:37.0</EPOCH>
                    <X units="km">-6242.518709837046</X>
                    <Y units="km">-2843.442103978089</Y>
                    <Z units="km">0.552178949240348</Z>
                    <X_DOT units="km/s">3.1599545193081306</X_DOT>
                    <Y_DOT units="km/s">-6.948160553172335</Y_DOT>
                    <Z_DOT units="km/s">0.0012153979679402239</Z_DOT>
                    <X_DDOT units="km/s**2">0.007719781048182119</X_DDOT>
                    <Y_DDOT units="km/s**2">0.003516265386690291</Y_DDOT>
                    <Z_DDOT units="km/s**2">-6.798263070278618E-7</Z_DDOT>
                </stateVector>
                <stateVector>
                    <EPOCH>2020-12-01T11:55:37.0</EPOCH>
                    <X units="km">-6039.172110097343</X>
                    <Y units="km">-3253.6958302365624</Y>
                    <Z units="km">0.623820627777666</Z>
                    <X_DOT units="km/s">3.615740152993841</X_DOT>
                    <Y_DOT units="km/s">-6.721895443134714</Y_DOT>
                    <Z_DOT units="km/s">0.001172328425065632</Z_DOT>
                    <X_DDOT units="km/s**2">0.007467428964451681</X_DDOT>
                    <Y_DDOT units="km/s**2">0.0040230820700408905</Y_DDOT>
                    <Z_DDOT units="km/s**2">-7.552282125463708E-7</Z_DDOT>
                </stateVector>
                <stateVector>
                    <EPOCH>2020-12-01T11:56:37.0</EPOCH>
                    <X units="km">-5808.952842248037</X>
                    <Y units="km">-3649.471914248255</Y>
                    <Z units="km">0.692774617260574</Z>
                    <X_DOT units="km/s">4.055380118165897</X_DOT>
                    <Y_DOT units="km/s">-6.465751979390508</Y_DOT>
                    <Z_DOT units="km/s">0.001125001283338409</Z_DOT>
                    <X_DDOT units="km/s**2">0.007181790919404555</X_DDOT>
                    <Y_DDOT units="km/s**2">0.004511835066146386</Y_DDOT>
                    <Z_DDOT units="km/s**2">-8.194775897240283E-7</Z_DDOT>
                </stateVector>
                <stateVector>
                    <EPOCH>2020-12-01T11:57:37.0</EPOCH>
                    <X units="km">-5552.888684090007</X>
                    <Y units="km">-4029.0114503319714</Y>
                    <Z units="km">0.758766598125542</Z>
                    <X_DOT units="km/s">4.4769153447097905</X_DOT>
                    <Y_DOT units="km/s">-6.180880726837619</Y_DOT>
                    <Z_DOT units="km/s">0.0010741953684804326</Z_DOT>
                    <X_DDOT units="km/s**2">0.006864168368059199</X_DDOT>
                    <Y_DDOT units="km/s**2">0.004980316362527579</Y_DDOT>
                    <Z_DDOT units="km/s**2">-8.735086462703242E-7</Z_DDOT>
                </stateVector>
                <stateVector>
                    <EPOCH>2020-12-01T11:58:37.0</EPOCH>
                    <X units="km">-5272.122683851311</X>
                    <Y units="km">-4390.628562019356</Y>
                    <Z units="km">0.8216128116235036</Z>
                    <X_DOT units="km/s">4.878469398558928</X_DOT>
                    <Y_DOT units="km/s">-5.868561587350194</Y_DOT>
                    <Z_DOT units="km/s">0.0010201042356849375</Z_DOT>
                    <X_DDOT units="km/s**2">0.006516004342290156</X_DDOT>
                    <Y_DDOT units="km/s**2">0.005426422681770701</Y_DDOT>
                    <Z_DDOT units="km/s**2">-9.310079773085069E-7</Z_DDOT>
                </stateVector>
                <stateVector>
                    <EPOCH>2020-12-01T11:59:37.0</EPOCH>
                    <X units="km">-4967.907762458037</X>
                    <Y units="km">-4732.717865911673</Y>
                    <Z units="km">0.8811049617908584</Z>
                    <X_DOT units="km/s">5.258256648848585</X_DOT>
                    <Y_DOT units="km/s">-5.530197516498223</Y_DOT>
                    <Z_DOT units="km/s">9.622763561855354E-4</Z_DOT>
                    <X_DDOT units="km/s**2">0.0061388840415843695</X_DDOT>
                    <Y_DDOT units="km/s**2">0.00584815730232699</Y_DDOT>
                    <Z_DDOT units="km/s**2">-9.979980991586054E-7</Z_DDOT>
                </stateVector>
                